NORAD_CAT_ID,OBJECT_NAME,OBJECT_TYPE,EPOCH,MEAN_MOTION,ECCENTRICITY,INCLINATION,RA_OF_ASC_NODE,ARG_OF_PERICENTER,MEAN_ANOMALY,BSTAR,MEAN_MOTION_DOT,MEAN_MOTION_DDOT,TLE_LINE0,TLE_LINE1,TLE_LINE2,SEMIMAJOR_AXIS,PERIOD,APOGEE,PERIGEE,DECAYED
53008.0,STARLINK-4275,PAYLOAD,2024-05-17 20:17:14,15.08840978,0.0001528,53.2158,180.757,92.257,267.8597,0.00012381,1.683e-05,0.0,0 STARLINK-4275,1 53008U 22076Y   24138.84530422  .00001683  00000-0  12381-3 0  9995,2 53008  53.2158 180.7570 0001528  92.2570 267.8597 15.08840978103559,6917.877,95.437,540.799,538.685,0.0
53008.0,STARLINK-4275,PAYLOAD,2024-05-18 09:00:19,15.08841074,0.0001442,53.2158,178.3788,87.8973,272.2184,0.00010102,1.32e-05,0.0,0 STARLINK-4275,1 53008U 22076Y   24139.37522710  .00001320  00000-0  10102-3 0  9992,2 53008  53.2158 178.3788 0001442  87.8973 272.2184 15.08841074103162,6917.877,95.437,540.74,538.745,0.0
53008.0,STARLINK-4275,PAYLOAD,2024-05-18 20:08:01,15.08836331,0.0001496,53.2162,176.2961,87.1844,272.9319,4.6481e-05,4.52e-06,0.0,0 STARLINK-4275,1 53008U 22076Y   24139.83891077  .00000452  00000-0  46481-4 0  9993,2 53008  53.2162 176.2961 0001496  87.1844 272.9319 15.08836331103703,6917.892,95.438,540.792,538.722,0.0
53008.0,STARLINK-4275,PAYLOAD,2024-05-19 08:51:07,15.08830753,0.0001685,53.217,173.9171,93.2414,266.8771,-0.00011087,-2.052e-05,0.0,0 STARLINK-4275,1 53008U 22076Y   24140.36883744 -.00002052  00000-0 -11087-3 0  9998,2 53008  53.2170 173.9171 0001685  93.2414 266.8771 15.08830753103313,6917.909,95.438,540.939,538.608,0.0
53008.0,STARLINK-4275,PAYLOAD,2024-05-20 02:20:21,15.08840717,0.0001695,53.2163,170.6455,101.9937,258.1245,0.00017623,2.518e-05,0.0,0 STARLINK-4275,1 53008U 22076Y   24141.09747531  .00002518  00000-0  17623-3 0  9999,2 53008  53.2163 170.6455 0001695 101.9937 258.1245 15.08840717103896,6917.878,95.438,540.916,538.571,0.0
53008.0,STARLINK-4275,PAYLOAD,2024-05-20 07:06:31,15.08846781,0.0001843,53.2169,169.7551,96.1294,263.9908,0.00025043,3.7e-05,0.0,0 STARLINK-4275,1 53008U 22076Y   24141.29619328  .00003700  00000-0  25043-3 0  9992,2 53008  53.2169 169.7551 0001843  96.1294 263.9908 15.08846781103453,6917.86,95.437,541.0,538.45,0.0
53008.0,STARLINK-4275,PAYLOAD,2024-05-21 02:11:09,15.08836945,0.0001834,53.2161,166.1905,67.0763,293.0422,0.00024222,3.569e-05,0.0,0 STARLINK-4275,1 53008U 22076Y   24142.09108089  .00003569  00000-0  24222-3 0  9999,2 53008  53.2161 166.1905 0001834  67.0763 293.0422 15.08836945104049,6917.89,95.438,541.023,538.486,0.0
53008.0,STARLINK-4275,PAYLOAD,2024-05-21 06:57:18,15.08835304,0.000166,53.2163,165.2955,88.2189,271.8993,0.00014554,2.029e-05,0.0,0 STARLINK-4275,1 53008U 22076Y   24142.28980058  .00002029  00000-0  14554-3 0  9991,2 53008  53.2163 165.2955 0001660  88.2189 271.8993 15.08835304103606,6917.895,95.438,540.908,538.611,0.0
53008.0,STARLINK-4275,PAYLOAD,2024-05-22 05:12:42,15.08843313,0.0001692,53.2166,161.1352,91.2849,268.8337,4.0299e-05,3.53e-06,0.0,0 STARLINK-4275,1 53008U 22076Y   24143.21715553  .00000353  00000-0  40299-4 0  9995,2 53008  53.2166 161.1352 0001692  91.2849 268.8337 15.08843313104212,6917.87,95.437,540.906,538.565,0.0
53008.0,STARLINK-4275,PAYLOAD,2024-05-22 11:34:14,15.08845781,0.0001647,53.2172,159.9427,91.3948,268.7232,6.7543e-05,7.87e-06,0.0,0 STARLINK-4275,1 53008U 22076Y   24143.48211441  .00000787  00000-0  67543-4 0  9993,2 53008  53.2172 159.9427 0001647  91.3948 268.7232 15.08845781103783,6917.863,95.437,540.867,538.588,0.0
53008.0,STARLINK-4275,PAYLOAD,2024-05-23 05:03:29,15.08836068,0.0001742,53.218,156.6694,99.5343,260.5846,6.8567e-05,8.03e-06,0.0,0 STARLINK-4275,1 53008U 22076Y   24144.21076120  .00000803  00000-0  68567-4 0  9994,2 53008  53.2180 156.6694 0001742  99.5343 260.5846 15.08836068104361,6917.892,95.438,540.963,538.552,0.0
53008.0,STARLINK-4275,PAYLOAD,2024-05-23 09:49:39,15.08835153,0.0001552,53.2173,155.7788,85.8864,274.2306,5.3038e-05,5.56e-06,0.0,0 STARLINK-4275,1 53008U 22076Y   24144.40948296  .00000556  00000-0  53038-4 0  9999,2 53008  53.2173 155.7788 0001552  85.8864 274.2306 15.08835153103920,6917.895,95.438,540.834,538.687,0.0
53008.0,STARLINK-4275,PAYLOAD,2024-05-24 08:05:02,15.08848499,0.0001502,53.2171,151.6159,80.5306,279.5856,7.7001e-05,9.38e-06,0.0,0 STARLINK-4275,1 53008U 22076Y   24145.33683378  .00000938  00000-0  77001-4 0  9999,2 53008  53.2171 151.6159 0001502  80.5306 279.5856 15.08848499104536,6917.854,95.437,540.758,538.68,0.0
53008.0,STARLINK-4275,PAYLOAD,2024-05-25 04:45:04,15.08834521,0.0001523,53.217,147.7507,80.1529,279.9635,4.0343e-05,3.54e-06,0.0,0 STARLINK-4275,1 53008U 22076Y   24146.19796430  .00000354  00000-0  40343-4 0  9999,2 53008  53.2170 147.7507 0001523  80.1529 279.9635 15.08834521104668,6917.897,95.438,540.816,538.709,0.0
53008.0,STARLINK-4275,PAYLOAD,2024-05-25 09:31:13,15.08835671,0.0001379,53.2165,146.8586,90.1307,269.9843,4.1061e-05,3.66e-06,0.0,0 STARLINK-4275,1 53008U 22076Y   24146.39668314  .00000366  00000-0  41061-4 0  9991,2 53008  53.2165 146.8586 0001379  90.1307 269.9843 15.08835671104222,6917.894,95.438,540.713,538.805,0.0
53008.0,STARLINK-4275,PAYLOAD,2024-05-26 09:22:00,15.08843856,0.0001283,53.217,142.3978,84.4109,275.7029,5.3139e-05,5.58e-06,0.0,0 STARLINK-4275,1 53008U 22076Y   24147.39027812  .00000558  00000-0  53139-4 0  9996,2 53008  53.2170 142.3978 0001283  84.4109 275.7029 15.08843856104847,6917.869,95.437,540.621,538.846,0.0
53008.0,STARLINK-4275,PAYLOAD,2024-05-26 17:18:55,15.08842997,0.0001556,53.2162,140.9145,71.4497,288.6664,6.3624e-06,-1.87e-06,0.0,0 STARLINK-4275,1 53008U 22076Y   24147.72148084 -.00000187  00000-0  63624-5 0  9998,2 53008  53.2162 140.9145 0001556  71.4497 288.6664 15.08842997104424,6917.871,95.437,540.813,538.66,0.0
53008.0,STARLINK-4275,PAYLOAD,2024-05-27 04:26:38,15.0883666,0.0001418,53.2167,138.8294,93.2905,266.825,8.2932e-05,1.032e-05,0.0,0 STARLINK-4275,1 53008U 22076Y   24148.18516338  .00001032  00000-0  82932-4 0  9991,2 53008  53.2167 138.8294 0001418  93.2905 266.8250 15.08836660104961,6917.891,95.438,540.737,538.775,0.0
53008.0,STARLINK-4275,PAYLOAD,2024-05-27 06:02:01,15.08837187,0.000142,53.2167,138.532,93.3885,266.727,8.6149e-05,1.083e-05,0.0,0 STARLINK-4275,1 53008U 22076Y   24148.25140312  .00001083  00000-0  86149-4 0  9994,2 53008  53.2167 138.5320 0001420  93.3885 266.7270 15.08837187104505,6917.889,95.438,540.736,538.772,0.0
53008.0,STARLINK-4275,PAYLOAD,2024-05-28 09:03:34,15.08842513,0.0001453,53.217,133.4765,95.8418,264.274,7.5354e-05,9.12e-06,0.0,0 STARLINK-4275,1 53008U 22076Y   24149.37747991  .00000912  00000-0  75354-4 0  9990,2 53008  53.2170 133.4765 0001453  95.8418 264.2740 15.08842513105146,6917.873,95.437,540.743,538.733,0.0
53008.0,STARLINK-4275,PAYLOAD,2024-05-29 04:08:12,15.08836309,0.0001452,53.2172,129.9073,100.2068,259.9088,8.0837e-06,-1.59e-06,0.0,0 STARLINK-4275,1 53008U 22076Y   24150.17236614 -.00000159  00000-0  80837-5 0  9992,2 53008  53.2172 129.9073 0001452 100.2068 259.9088 15.08836309105266,6917.892,95.438,540.761,538.752,0.0
53008.0,STARLINK-4275,PAYLOAD,2024-05-29 08:54:21,15.0883602,0.0001438,53.2172,129.0155,98.1037,262.0118,3.2165e-06,-2.37e-06,0.0,0 STARLINK-4275,1 53008U 22076Y   24150.37108679 -.00000237  00000-0  32165-5 0  9991,2 53008  53.2172 129.0155 0001438  98.1037 262.0118 15.08836020104823,6917.893,95.438,540.752,538.763,0.0
53008.0,STARLINK-4275,PAYLOAD,2024-05-30 03:58:59,15.08843128,0.0001415,53.2175,125.4472,97.7679,262.3473,4.4772e-05,4.25e-06,0.0,0 STARLINK-4275,1 53008U 22076Y   24151.16596188  .00000425  00000-0  44772-4 0  9999,2 53008  53.2175 125.4472 0001415  97.7679 262.3473 15.08843128105410,6917.871,95.437,540.715,538.757,0.0
53008.0,STARLINK-4275,PAYLOAD,2024-05-30 05:34:22,15.0884385,0.000141,53.2176,125.1498,96.4327,263.6826,4.9812e-05,5.05e-06,0.0,0 STARLINK-4275,1 53008U 22076Y   24151.23220120  .00000505  00000-0  49812-4 0  9996,2 53008  53.2176 125.1498 0001410  96.4327 263.6826 15.08843850104953,6917.869,95.437,540.709,538.758,0.0
53008.0,STARLINK-4275,PAYLOAD,2024-05-31 03:49:46,15.08837002,0.0001418,53.218,120.9886,99.2234,260.8919,3.972e-05,3.44e-06,0.0,0 STARLINK-4275,1 53008U 22076Y   24152.15956749  .00000344  00000-0  39720-4 0  9999,2 53008  53.2180 120.9886 0001418  99.2234 260.8919 15.08837002105560,6917.89,95.438,540.736,538.774,0.0
53008.0,STARLINK-4275,PAYLOAD,2024-05-31 07:00:32,15.08837399,0.000138,53.2178,120.393,88.2725,271.8426,4.1788e-05,3.77e-06,0.0,0 STARLINK-4275,1 53008U 22076Y   24152.29204778  .00000377  00000-0  41788-4 0  9995,2 53008  53.2178 120.3930 0001380  88.2725 271.8426 15.08837399105117,6917.888,95.438,540.708,538.799,0.0
53008.0,STARLINK-4275,PAYLOAD,2024-06-01 06:51:19,15.08848262,0.0001442,53.2181,115.934,84.9949,275.1208,7.6431e-05,9.29e-06,0.0,0 STARLINK-4275,1 53008U 22076Y   24153.28563965  .00000929  00000-0  76431-4 0  9997,2 53008  53.2181 115.9340 0001442  84.9949 275.1208 15.08848262105730,6917.855,95.437,540.718,538.723,0.0
53008.0,STARLINK-4275,PAYLOAD,2024-06-01 14:48:15,15.08834563,0.0001426,53.2179,114.4475,90.9546,269.1609,0.00018458,2.65e-05,0.0,0 STARLINK-4275,1 53008U 22076Y   24153.61684560  .00002650  00000-0  18458-3 0  9996,2 53008  53.2179 114.4475 0001426  90.9546 269.1609 15.08834563105784,6917.897,95.438,540.748,538.776,0.0
53008.0,STARLINK-4275,PAYLOAD,2024-06-02 14:39:02,15.08834537,0.0001451,53.218,109.9821,102.0006,258.1148,1.936e-05,2e-07,0.0,0 STARLINK-4275,1 53008U 22076Y   24154.61044973  .00000020  00000-0  19360-4 0  9998,2 53008  53.2180 109.9821 0001451 102.0006 258.1148 15.08834537105466,6917.897,95.438,540.766,538.758,0.0
53008.0,STARLINK-4275,PAYLOAD,2024-06-03 03:22:07,15.08839963,0.0001578,53.2201,107.6038,96.439,263.6782,-1.84e-05,-5.81e-06,0.0,0 STARLINK-4275,1 53008U 22076Y   24155.14036861 -.00000581  00000-0 -18400-4 0  9992,2 53008  53.2201 107.6038 0001578  96.4390 263.6782 15.08839963106012,6917.881,95.438,540.837,538.654,0.0
